{"type": "FeatureCollection", "features": [ {"type": "Feature", "properties": {"norad_id": 66645, "name": "SHENZHOU-22", "group": "last-30-days", "lat": 19.288389303329428, "lon": 81.55397060125001, "alt_km": 379.30701567698543, "timestamp": "2025-12-27T20:30:58.020976+00:00", "meta": {"OBJECT_NAME": "SHENZHOU-22", "OBJECT_ID": "2025-272A", "EPOCH": "2025-12-27T06:02:45.823200", "MEAN_MOTION": 15.59750285, "ECCENTRICITY": 0.0008745, "INCLINATION": 41.4675, "RA_OF_ASC_NODE": 288.5662, "ARG_OF_PERICENTER": 157.7703, "MEAN_ANOMALY": 202.3516, "EPHEMERIS_TYPE": 0, "CLASSIFICATION_TYPE": "U", "NORAD_CAT_ID": 66645, "ELEMENT_SET_NO": 999, "REV_AT_EPOCH": 26598, "BSTAR": 0.00024488937, "MEAN_MOTION_DOT": 0.0001992, "MEAN_MOTION_DDOT": 0}, "tle": {"line1": "1 66645U 25272A   25361.25191925  .00019920  00000+0  24489-3 0  9996", "line2": "2 66645  41.4675 288.5662 0008745 157.7703 202.3516 15.59750285265983"}}, "geometry": {"type": "Point", "coordinates": [81.55397060125001, 19.288389303329428]}}, {"type": "Feature", "properties": {"norad_id": 66647, "name": "COSMOS 2597 (RODNIK-S 22)", "group": "last-30-days", "lat": -23.748094657339188, "lon": -86.25859230477614, "alt_km": 1503.1359952710045, "timestamp": "2025-12-27T20:30:58.020987+00:00", "meta": {"OBJECT_NAME": "COSMOS 2597 (RODNIK-S 22)", "OBJECT_ID": "2025-273A", "EPOCH": "2025-12-26T19:30:39.240288", "MEAN_MOTION": 12.41952314, "ECCENTRICITY": 0.00075998, "INCLINATION": 82.4993, "RA_OF_ASC_NODE": 277.7108, "ARG_OF_PERICENTER": 252.7737, "MEAN_ANOMALY": 107.251, "EPHEMERIS_TYPE": 0, "CLASSIFICATION_TYPE": "U", "NORAD_CAT_ID": 66647, "ELEMENT_SET_NO": 999, "REV_AT_EPOCH": 388, "BSTAR": 9.9658941e-05, "MEAN_MOTION_DOT": 2.3e-07, "MEAN_MOTION_DDOT": 0}, "tle": {"line1": "1 66647U 25273A   25360.81295417  .00000023  00000+0  99659-4 0  9997", "line2": "2 66647  82.4993 277.7108 0007599 252.7737 107.2510 12.41952314  3888"}}, "geometry": {"type": "Point", "coordinates": [-86.25859230477614, -23.748094657339188]}}, {"type": "Feature", "properties": {"norad_id": 66648, "name": "COSMOS 2598 (RODNIK-S 23)", "group": "last-30-days", "lat": 78.53873365189277, "lon": -42.4563891046858, "alt_km": 1488.8243563734823, "timestamp": "2025-12-27T20:30:58.020999+00:00", "meta": {"OBJECT_NAME": "COSMOS 2598 (RODNIK-S 23)", "OBJECT_ID": "2025-273B", "EPOCH": "2025-12-27T08:29:29.094144", "MEAN_MOTION": 12.43233733, "ECCENTRICITY": 0.0008264, "INCLINATION": 82.5032, "RA_OF_ASC_NODE": 277.3584, "ARG_OF_PERICENTER": 202.0633, "MEAN_ANOMALY": 158.0092, "EPHEMERIS_TYPE": 0, "CLASSIFICATION_TYPE": "U", "NORAD_CAT_ID": 66648, "ELEMENT_SET_NO": 999, "REV_AT_EPOCH": 395, "BSTAR": 0.00015723, "MEAN_MOTION_DOT": 3.2e-07, "MEAN_MOTION_DDOT": 0}, "tle": {"line1": "1 66648U 25273B   25361.35380896  .00000032  00000+0  15723-3 0  9993", "line2": "2 66648  82.5032 277.3584 0008264 202.0633 158.0092 12.43233733  3957"}}, "geometry": {"type": "Point", "coordinates": [-42.4563891046858, 78.53873365189277]}}, {"type": "Feature", "properties": {"norad_id": 66649, "name": "COSMOS 2599 (RODNIK-S 24)", "group": "last-30-days", "lat": -81.54064171221425, "lon": -145.15805603749968, "alt_km": 1505.0169795767024, "timestamp": "2025-12-27T20:30:58.021012+00:00", "meta": {"OBJECT_NAME": "COSMOS 2599 (RODNIK-S 24)", "OBJECT_ID": "2025-273C", "EPOCH": "2025-12-27T11:18:21.464928", "MEAN_MOTION": 12.4115244, "ECCENTRICITY": 0.0006359, "INCLINATION": 82.505, "RA_OF_ASC_NODE": 277.3405, "ARG_OF_PERICENTER": 239.1431, "MEAN_ANOMALY": 120.9022, "EPHEMERIS_TYPE": 0, "CLASSIFICATION_TYPE": "U", "NORAD_CAT_ID": 66649, "ELEMENT_SET_NO": 999, "REV_AT_EPOCH": 396, "BSTAR": 0.00016804, "MEAN_MOTION_DOT": 3.3e-07, "MEAN_MOTION_DDOT": 0}, "tle": {"line1": "1 66649U 25273C   25361.47108177  .00000033  00000+0  16804-3 0  9999", "line2": "2 66649  82.5050 277.3405 0006359 239.1431 120.9022 12.41152440  3965"}}, "geometry": {"type": "Point", "coordinates": [-145.15805603749968, -81.54064171221425]}}, {"type": "Feature", "properties": {"norad_id": 66650, "name": "BEE-1000", "group": "last-30-days", "lat": 50.13323741206698, "lon": -80.60729614658105, "alt_km": 594.5138718867365, "timestamp": "2025-12-27T20:30:58.021023+00:00", "meta": {"OBJECT_NAME": "BEE-1000", "OBJECT_ID": "2025-274A", "EPOCH": "2025-12-27T09:01:10.623360", "MEAN_MOTION": 14.91711551, "ECCENTRICITY": 0.0011281, "INCLINATION": 97.7406, "RA_OF_ASC_NODE": 288.2959, "ARG_OF_PERICENTER": 197.9205, "MEAN_ANOMALY": 162.1617, "EPHEMERIS_TYPE": 0, "CLASSIFICATION_TYPE": "U", "NORAD_CAT_ID": 66650, "ELEMENT_SET_NO": 999, "REV_AT_EPOCH": 458, "BSTAR": 0.00018183, "MEAN_MOTION_DOT": 1.776e-05, "MEAN_MOTION_DDOT": 0}, "tle": {"line1": "1 66650U 25274A   25361.37581740  .00001776  00000+0  18183-3 0  9999", "line2": "2 66650  97.7406 288.2959 0011281 197.9205 162.1617 14.91711551  4583"}}, "geometry": {"type": "Point", "coordinates": [-80.60729614658105, 50.13323741206698]}}, {"type": "Feature", "properties": {"norad_id": 66651, "name": "2025-274B", "group": "last-30-days", "lat": 63.61494315982762, "lon": -87.1414082552274, "alt_km": 590.9272302140698, "timestamp": "2025-12-27T20:30:58.021033+00:00", "meta": {"OBJECT_NAME": "2025-274B", "OBJECT_ID": "2025-274B", "EPOCH": "2025-12-27T08:57:31.819680", "MEAN_MOTION": 14.9190671, "ECCENTRICITY": 0.0011482, "INCLINATION": 97.7398, "RA_OF_ASC_NODE": 288.2977, "ARG_OF_PERICENTER": 196.3327, "MEAN_ANOMALY": 163.7524, "EPHEMERIS_TYPE": 0, "CLASSIFICATION_TYPE": "U", "NORAD_CAT_ID": 66651, "ELEMENT_SET_NO": 999, "REV_AT_EPOCH": 458, "BSTAR": 0.00038466, "MEAN_MOTION_DOT": 3.839e-05, "MEAN_MOTION_DDOT": 0}, "tle": {"line1": "1 66651U 25274B   25361.37328495  .00003839  00000+0  38466-3 0  9994", "line2": "2 66651  97.7398 288.2977 0011482 196.3327 163.7524 14.91906710  4582"}}, "geometry": {"type": "Point", "coordinates": [-87.1414082552274, 63.61494315982762]}}, {"type": "Feature", "properties": {"norad_id": 66652, "name": "2025-274C", "group": "last-30-days", "lat": 75.27408039187158, "lon": -102.38793648051185, "alt_km": 588.8404583184365, "timestamp": "2025-12-27T20:30:58.021043+00:00", "meta": {"OBJECT_NAME": "2025-274C", "OBJECT_ID": "2025-274C", "EPOCH": "2025-12-27T07:17:34.697184", "MEAN_MOTION": 14.9198926, "ECCENTRICITY": 0.0010985, "INCLINATION": 97.7405, "RA_OF_ASC_NODE": 288.2366, "ARG_OF_PERICENTER": 203.156, "MEAN_ANOMALY": 156.9165, "EPHEMERIS_TYPE": 0, "CLASSIFICATION_TYPE": "U", "NORAD_CAT_ID": 66652, "ELEMENT_SET_NO": 999, "REV_AT_EPOCH": 457, "BSTAR": 0.00032243, "MEAN_MOTION_DOT": 3.215e-05, "MEAN_MOTION_DDOT": 0}, "tle": {"line1": "1 66652U 25274C   25361.30387381  .00003215  00000+0  32243-3 0  9992", "line2": "2 66652  97.7405 288.2366 0010985 203.1560 156.9165 14.91989260  4572"}}, "geometry": {"type": "Point", "coordinates": [-102.38793648051185, 75.27408039187158]}}, {"type": "Feature", "properties": {"norad_id": 66653, "name": "2025-274D", "group": "last-30-days", "lat": 75.4768558478426, "lon": -102.89450639087906, "alt_km": 588.8354694559985, "timestamp": "2025-12-27T20:30:58.021053+00:00", "meta": {"OBJECT_NAME": "2025-274D", "OBJECT_ID": "2025-274D", "EPOCH": "2025-12-27T07:17:30.231168", "MEAN_MOTION": 14.91976029, "ECCENTRICITY": 0.0011979, "INCLINATION": 97.7403, "RA_OF_ASC_NODE": 288.2361, "ARG_OF_PERICENTER": 199.9827, "MEAN_ANOMALY": 160.0924, "EPHEMERIS_TYPE": 0, "CLASSIFICATION_TYPE": "U", "NORAD_CAT_ID": 66653, "ELEMENT_SET_NO": 999, "REV_AT_EPOCH": 457, "BSTAR": 0.00024974, "MEAN_MOTION_DOT": 2.477e-05, "MEAN_MOTION_DDOT": 0}, "tle": {"line1": "1 66653U 25274D   25361.30382212  .00002477  00000+0  24974-3 0  9992", "line2": "2 66653  97.7403 288.2361 0011979 199.9827 160.0924 14.91976029  4576"}}, "geometry": {"type": "Point", "coordinates": [-102.89450639087906, 75.4768558478426]}}, {"type": "Feature", "properties": {"norad_id": 66654, "name": "JACK E", "group": "last-30-days", "lat": 79.40419324409717, "lon": 155.42955460304992, "alt_km": 585.7077627665358, "timestamp": "2025-12-27T20:30:58.021063+00:00", "meta": {"OBJECT_NAME": "JACK E", "OBJECT_ID": "2025-274E", "EPOCH": "2025-12-27T08:48:55.163232", "MEAN_MOTION": 14.92163892, "ECCENTRICITY": 0.0012519, "INCLINATION": 97.7404, "RA_OF_ASC_NODE": 288.3077, "ARG_OF_PERICENTER": 201.4124, "MEAN_ANOMALY": 158.6573, "EPHEMERIS_TYPE": 0, "CLASSIFICATION_TYPE": "U", "NORAD_CAT_ID": 66654, "ELEMENT_SET_NO": 999, "REV_AT_EPOCH": 458, "BSTAR": 0.00030948, "MEAN_MOTION_DOT": 3.098e-05, "MEAN_MOTION_DDOT": 0}, "tle": {"line1": "1 66654U 25274E   25361.36730513  .00003098  00000+0  30948-3 0  9998", "line2": "2 66654  97.7404 288.3077 0012519 201.4124 158.6573 14.92163892  4584"}}, "geometry": {"type": "Point", "coordinates": [155.42955460304992, 79.40419324409717]}}, {"type": "Feature", "properties": {"norad_id": 66655, "name": "2025-274F", "group": "last-30-days", "lat": 48.78962759862419, "lon": -80.17347255413249, "alt_km": 589.241303646625, "timestamp": "2025-12-27T20:30:58.021073+00:00", "meta": {"OBJECT_NAME": "2025-274F", "OBJECT_ID": "2025-274F", "EPOCH": "2025-12-27T07:24:43.342272", "MEAN_MOTION": 14.91205821, "ECCENTRICITY": 0.0004245, "INCLINATION": 97.7334, "RA_OF_ASC_NODE": 288.2181, "ARG_OF_PERICENTER": 332.2015, "MEAN_ANOMALY": 27.8976, "EPHEMERIS_TYPE": 0, "CLASSIFICATION_TYPE": "U", "NORAD_CAT_ID": 66655, "ELEMENT_SET_NO": 999, "REV_AT_EPOCH": 457, "BSTAR": -4.2516e-08, "MEAN_MOTION_DOT": -5.5e-07, "MEAN_MOTION_DDOT": 0}, "tle": {"line1": "1 66655U 25274F   25361.30883498 -.00000055  00000+0 -42516-7 0  9994", "line2": "2 66655  97.7334 288.2181 0004245 332.2015  27.8976 14.91205821  4572"}}, "geometry": {"type": "Point", "coordinates": [-80.17347255413249, 48.78962759862419]}}]}